start=new Date('2022-03-12T00:00:00.000Z').valueOf();
sats=[{"DECAY_DATE":null,"EPHEMERIS_TYPE":"0","EPOCH":"2022-03-11T07:20:08.711232","NORAD_CAT_ID":"46754","ARG_OF_PERICENTER":"64.4695","TIME_SYSTEM":"UTC","COUNTRY_CODE":"US","CLASSIFICATION_TYPE":"U","ELEMENT_SET_NO":"999","OBJECT_TYPE":"PAYLOAD","ECCENTRICITY":"0.00016350","MEAN_ELEMENT_THEORY":"SGP4","RCS_SIZE":"LARGE","REV_AT_EPOCH":"7671","MEAN_MOTION_DDOT":"0.0000000000000","SITE":"AFETR","INCLINATION":"53.0555","RA_OF_ASC_NODE":"33.0387","REF_FRAME":"TEME","FILE":"3354959","OBJECT_NAME":"STARLINK-1923","MEAN_ANOMALY":"295.6463","OBJECT_ID":"2020-074R","APOAPSIS":"548.325","CENTER_NAME":"EARTH","GP_ID":"198482256","PERIOD":"95.592","TLE_LINE2":"2 46754  53.0555  33.0387 0001635  64.4695 295.6463 15.06406906 76717","BSTAR":"0.00014595000000","TLE_LINE1":"1 46754U 20074R   22070.30565638  .00001893  00000-0  14595-3 0  9994","MEAN_MOTION":"15.06406906","SEMIMAJOR_AXIS":"6925.327","PERIAPSIS":"546.060","MEAN_MOTION_DOT":"0.00001893","LAUNCH_DATE":"2020-10-24"},{"DECAY_DATE":null,"EPOCH":"2022-03-11T15:25:07.774176","EPHEMERIS_TYPE":"0","COUNTRY_CODE":"US","ARG_OF_PERICENTER":"52.5988","TIME_SYSTEM":"UTC","NORAD_CAT_ID":"46755","ELEMENT_SET_NO":"999","CLASSIFICATION_TYPE":"U","ECCENTRICITY":"0.00017320","OBJECT_TYPE":"PAYLOAD","RCS_SIZE":"LARGE","MEAN_ELEMENT_THEORY":"SGP4","MEAN_MOTION_DDOT":"0.0000000000000","REV_AT_EPOCH":"7669","SITE":"AFETR","RA_OF_ASC_NODE":"36.5310","REF_FRAME":"TEME","INCLINATION":"53.0554","OBJECT_ID":"2020-074S","MEAN_ANOMALY":"307.5158","OBJECT_NAME":"STARLINK-1924","FILE":"3355378","TLE_LINE2":"2 46755  53.0554  36.5310 0001732  52.5988 307.5158 15.06405565 76693","PERIOD":"95.592","BSTAR":"0.00012166000000","CENTER_NAME":"EARTH","GP_ID":"198518082","APOAPSIS":"548.396","MEAN_MOTION":"15.06405565","TLE_LINE1":"1 46755U 20074S   22070.64245109  .00001531  00000-0  12166-3 0  9991","PERIAPSIS":"545.997","SEMIMAJOR_AXIS":"6925.332","LAUNCH_DATE":"2020-10-24","MEAN_MOTION_DOT":"0.00001531"},{"NORAD_CAT_ID":"46756","COUNTRY_CODE":"US","TIME_SYSTEM":"UTC","ARG_OF_PERICENTER":"61.6955","EPHEMERIS_TYPE":"0","EPOCH":"2022-03-11T15:13:10.361280","DECAY_DATE":null,"REV_AT_EPOCH":"7669","MEAN_MOTION_DDOT":"0.0000000000000","MEAN_ELEMENT_THEORY":"SGP4","RCS_SIZE":"LARGE","OBJECT_TYPE":"PAYLOAD","ECCENTRICITY":"0.00018420","CLASSIFICATION_TYPE":"U","ELEMENT_SET_NO":"999","APOAPSIS":"548.450","TLE_LINE2":"2 46756  53.0561  36.5788 0001842  61.6955 298.4220 15.06412838 76697","BSTAR":"0.00045036000000","PERIOD":"95.591","GP_ID":"198518332","CENTER_NAME":"EARTH","MEAN_ANOMALY":"298.4220","FILE":"3355378","OBJECT_NAME":"STARLINK-1925","OBJECT_ID":"2020-074T","RA_OF_ASC_NODE":"36.5788","REF_FRAME":"TEME","INCLINATION":"53.0561","SITE":"AFETR","LAUNCH_DATE":"2020-10-24","MEAN_MOTION_DOT":"0.00006435","SEMIMAJOR_AXIS":"6925.309","PERIAPSIS":"545.899","MEAN_MOTION":"15.06412838","TLE_LINE1":"1 46756U 20074T   22070.63414770  .00006435  00000-0  45036-3 0  9993"},{"OBJECT_TYPE":"PAYLOAD","ECCENTRICITY":"0.00020180","CLASSIFICATION_TYPE":"U","ELEMENT_SET_NO":"999","REV_AT_EPOCH":"7672","MEAN_MOTION_DDOT":"0.0000000000000","MEAN_ELEMENT_THEORY":"SGP4","RCS_SIZE":"LARGE","EPHEMERIS_TYPE":"0","EPOCH":"2022-03-11T20:42:14.406336","DECAY_DATE":null,"NORAD_CAT_ID":"46757","COUNTRY_CODE":"US","ARG_OF_PERICENTER":"54.2585","TIME_SYSTEM":"UTC","MEAN_MOTION":"15.06404602","TLE_LINE1":"1 46757U 20074U   22070.86266674  .00001006  00000-0  86395-4 0  9990","LAUNCH_DATE":"2020-10-24","MEAN_MOTION_DOT":"0.00001006","SEMIMAJOR_AXIS":"6925.334","PERIAPSIS":"545.802","REF_FRAME":"TEME","RA_OF_ASC_NODE":"35.5626","INCLINATION":"53.0547","SITE":"AFETR","APOAPSIS":"548.597","PERIOD":"95.592","TLE_LINE2":"2 46757  53.0547  35.5626 0002018  54.2585 305.8591 15.06404602 76723","BSTAR":"0.00008639500000","CENTER_NAME":"EARTH","GP_ID":"198519583","MEAN_ANOMALY":"305.8591","OBJECT_NAME":"STARLINK-1926","FILE":"3355378","OBJECT_ID":"2020-074U"},{"MEAN_ANOMALY":"313.8634","FILE":"3355378","OBJECT_NAME":"STARLINK-1928","OBJECT_ID":"2020-074V","APOAPSIS":"548.776","TLE_LINE2":"2 46758  53.0540  35.4287 0002302  46.2545 313.8634 15.06410460 76739","BSTAR":"0.00034224000000","PERIOD":"95.591","CENTER_NAME":"EARTH","GP_ID":"198519334","SITE":"AFETR","RA_OF_ASC_NODE":"35.4287","REF_FRAME":"TEME","INCLINATION":"53.0540","PERIAPSIS":"545.587","SEMIMAJOR_AXIS":"6925.316","LAUNCH_DATE":"2020-10-24","MEAN_MOTION_DOT":"0.00004821","MEAN_MOTION":"15.06410460","TLE_LINE1":"1 46758U 20074V   22070.88941059  .00004821  00000-0  34224-3 0  9991","NORAD_CAT_ID":"46758","COUNTRY_CODE":"US","TIME_SYSTEM":"UTC","ARG_OF_PERICENTER":"46.2545","DECAY_DATE":null,"EPHEMERIS_TYPE":"0","EPOCH":"2022-03-11T21:20:45.074976","RCS_SIZE":"LARGE","MEAN_ELEMENT_THEORY":"SGP4","REV_AT_EPOCH":"7673","MEAN_MOTION_DDOT":"0.0000000000000","CLASSIFICATION_TYPE":"U","ELEMENT_SET_NO":"999","OBJECT_TYPE":"PAYLOAD","ECCENTRICITY":"0.00023020"},{"ECCENTRICITY":"0.00018700","OBJECT_TYPE":"PAYLOAD","ELEMENT_SET_NO":"999","CLASSIFICATION_TYPE":"U","MEAN_MOTION_DDOT":"0.0000000000000","REV_AT_EPOCH":"7654","RCS_SIZE":"LARGE","MEAN_ELEMENT_THEORY":"SGP4","EPOCH":"2022-03-11T14:51:58.015872","EPHEMERIS_TYPE":"0","DECAY_DATE":null,"COUNTRY_CODE":"US","TIME_SYSTEM":"UTC","ARG_OF_PERICENTER":"58.4213","NORAD_CAT_ID":"46759","TLE_LINE1":"1 46759U 20074W   22070.61942148  .00000553  00000-0  56005-4 0  9993","MEAN_MOTION":"15.06402908","LAUNCH_DATE":"2020-10-24","MEAN_MOTION_DOT":"0.00000553","PERIAPSIS":"545.910","SEMIMAJOR_AXIS":"6925.340","RA_OF_ASC_NODE":"46.6336","REF_FRAME":"TEME","INCLINATION":"53.0556","SITE":"AFETR","BSTAR":"0.00005600500000","TLE_LINE2":"2 46759  53.0556  46.6336 0001870  58.4213 301.6958 15.06402908 76543","PERIOD":"95.592","GP_ID":"198518582","CENTER_NAME":"EARTH","APOAPSIS":"548.500","OBJECT_ID":"2020-074W","MEAN_ANOMALY":"301.6958","OBJECT_NAME":"STARLINK-1833","FILE":"3355378"},{"MEAN_MOTION_DOT":"0.00000759","LAUNCH_DATE":"2020-10-24","SEMIMAJOR_AXIS":"6925.345","PERIAPSIS":"545.880","TLE_LINE1":"1 46760U 20074X   22070.63048350  .00000759  00000-0  69822-4 0  9998","MEAN_MOTION":"15.06401143","APOAPSIS":"548.540","GP_ID":"198518832","CENTER_NAME":"EARTH","BSTAR":"0.00006982200000","TLE_LINE2":"2 46760  53.0557  46.5840 0001920  56.2878 303.8293 15.06401143 76551","PERIOD":"95.592","FILE":"3355378","OBJECT_NAME":"STARLINK-1896","MEAN_ANOMALY":"303.8293","OBJECT_ID":"2020-074X","INCLINATION":"53.0557","RA_OF_ASC_NODE":"46.5840","REF_FRAME":"TEME","SITE":"AFETR","REV_AT_EPOCH":"7655","MEAN_MOTION_DDOT":"0.0000000000000","RCS_SIZE":"LARGE","MEAN_ELEMENT_THEORY":"SGP4","OBJECT_TYPE":"PAYLOAD","ECCENTRICITY":"0.00019200","CLASSIFICATION_TYPE":"U","ELEMENT_SET_NO":"999","NORAD_CAT_ID":"46760","TIME_SYSTEM":"UTC","ARG_OF_PERICENTER":"56.2878","COUNTRY_CODE":"US","EPHEMERIS_TYPE":"0","EPOCH":"2022-03-11T15:07:53.774400","DECAY_DATE":null},{"MEAN_ANOMALY":"331.5510","OBJECT_NAME":"STARLINK-1902","FILE":"3354959","OBJECT_ID":"2020-074AA","APOAPSIS":"441.075","TLE_LINE2":"2 46763  53.0558  34.3043 0002103  28.5610 331.5510 15.42192806 76705","BSTAR":"0.00023254000000","PERIOD":"93.374","CENTER_NAME":"EARTH","GP_ID":"198484008","SITE":"AFETR","REF_FRAME":"TEME","RA_OF_ASC_NODE":"34.3043","INCLINATION":"53.0558","SEMIMAJOR_AXIS":"6817.776","PERIAPSIS":"438.207","LAUNCH_DATE":"2020-10-24","MEAN_MOTION_DOT":"0.00009732","MEAN_MOTION":"15.42192806","TLE_LINE1":"1 46763U 20074AA  22070.37315613  .00009732  00000-0  23254-3 0  9999","NORAD_CAT_ID":"46763","COUNTRY_CODE":"US","ARG_OF_PERICENTER":"28.5610","TIME_SYSTEM":"UTC","DECAY_DATE":null,"EPHEMERIS_TYPE":"0","EPOCH":"2022-03-11T08:57:20.689632","MEAN_ELEMENT_THEORY":"SGP4","RCS_SIZE":"LARGE","REV_AT_EPOCH":"7670","MEAN_MOTION_DDOT":"0.0000000000000","CLASSIFICATION_TYPE":"U","ELEMENT_SET_NO":"999","OBJECT_TYPE":"PAYLOAD","ECCENTRICITY":"0.00021030"},{"EPOCH":"2022-03-11T14:57:16.275456","EPHEMERIS_TYPE":"0","DECAY_DATE":null,"ARG_OF_PERICENTER":"51.5661","TIME_SYSTEM":"UTC","COUNTRY_CODE":"US","NORAD_CAT_ID":"46764","ECCENTRICITY":"0.00019900","OBJECT_TYPE":"PAYLOAD","ELEMENT_SET_NO":"999","CLASSIFICATION_TYPE":"U","MEAN_MOTION_DDOT":"0.0000000000000","REV_AT_EPOCH":"7655","MEAN_ELEMENT_THEORY":"SGP4","RCS_SIZE":"LARGE","INCLINATION":"53.0560","REF_FRAME":"TEME","RA_OF_ASC_NODE":"46.6141","SITE":"AFETR","GP_ID":"198519834","CENTER_NAME":"EARTH","PERIOD":"95.591","TLE_LINE2":"2 46764  53.0560  46.6141 0001990  51.5661 308.5506 15.06421622 76552","BSTAR":"0.00045359000000","APOAPSIS":"548.525","OBJECT_ID":"2020-074AB","OBJECT_NAME":"STARLINK-1903","FILE":"3355378","MEAN_ANOMALY":"308.5506","TLE_LINE1":"1 46764U 20074AB  22070.62310504  .00006485  00000-0  45359-3 0  9994","MEAN_MOTION":"15.06421622","MEAN_MOTION_DOT":"0.00006485","LAUNCH_DATE":"2020-10-24","SEMIMAJOR_AXIS":"6925.282","PERIAPSIS":"545.769"},{"ELEMENT_SET_NO":"999","CLASSIFICATION_TYPE":"U","ECCENTRICITY":"0.00018190","OBJECT_TYPE":"PAYLOAD","RCS_SIZE":"LARGE","MEAN_ELEMENT_THEORY":"SGP4","MEAN_MOTION_DDOT":"0.0000000000000","REV_AT_EPOCH":"7650","DECAY_DATE":null,"EPOCH":"2022-03-11T08:19:11.687520","EPHEMERIS_TYPE":"0","TIME_SYSTEM":"UTC","ARG_OF_PERICENTER":"56.3763","COUNTRY_CODE":"US","NORAD_CAT_ID":"46765","MEAN_MOTION":"15.06402988","TLE_LINE1":"1 46765U 20074AC  22070.34666305  .00002007  00000-0  15359-3 0  9990","SEMIMAJOR_AXIS":"6925.339","PERIAPSIS":"545.945","MEAN_MOTION_DOT":"0.00002007","LAUNCH_DATE":"2020-10-24","SITE":"AFETR","INCLINATION":"53.0561","RA_OF_ASC_NODE":"47.8751","REF_FRAME":"TEME","OBJECT_ID":"2020-074AC","FILE":"3354959","OBJECT_NAME":"STARLINK-1906","MEAN_ANOMALY":"303.7400","CENTER_NAME":"EARTH","GP_ID":"198482507","PERIOD":"95.592","TLE_LINE2":"2 46765  53.0561  47.8751 0001819  56.3763 303.7400 15.06402988 76509","BSTAR":"0.00015359000000","APOAPSIS":"548.464"}];
